[{"OBJECT_NAME":"STARLINK-32388","OBJECT_ID":"2024-224F","EPOCH":"2026-03-09T07:09:08.392320","MEAN_MOTION":15.27580355,"ECCENTRICITY":5.145e-5,"INCLINATION":42.9965,"RA_OF_ASC_NODE":167.7919,"ARG_OF_PERICENTER":206.7672,"MEAN_ANOMALY":153.3153,"EPHEMERIS_TYPE":0,"CLASSIFICATION_TYPE":"U","NORAD_CAT_ID":62144,"ELEMENT_SET_NO":999,"REV_AT_EPOCH":7233,"BSTAR":0.0010993082,"MEAN_MOTION_DOT":0.00030112,"MEAN_MOTION_DDOT":0},{"OBJECT_NAME":"DMSP 5D-2 F13 DEB","OBJECT_ID":"1995-015HL","EPOCH":"2026-02-09T02:06:19.247328","MEAN_MOTION":15.12822218,"ECCENTRICITY":0.00117732,"INCLINATION":98.8603,"RA_OF_ASC_NODE":96.8879,"ARG_OF_PERICENTER":223.037,"MEAN_ANOMALY":136.9936,"EPHEMERIS_TYPE":0,"CLASSIFICATION_TYPE":"U","NORAD_CAT_ID":42294,"ELEMENT_SET_NO":999,"REV_AT_EPOCH":55633,"BSTAR":0.010466292,"MEAN_MOTION_DOT":0.00188804,"MEAN_MOTION_DDOT":0}]
